STARLINK-31232          
1 58831U 24017F   26068.65104670  .00000276  00000+0  21441-4 0  9990
2 58831  53.1603 204.2623 0001180  50.6420 309.4685 15.30187107120057
2024-092F               
1 59778U 24092F   26068.91303411  .00025723  00000+0  79143-3 0  9992
2 59778  97.6418 198.4543 0008646 142.6506 217.5339 15.33614440100535
